full_name,a,e,i,om,w,q,ad,per_y,data_arc,condition_code,n_obs_used,n_del_obs_used,n_dop_obs_used,H
" 57062 (2001 NC1)",2.396003921226319,.1988482807992292,5.129059047678461,100.2386819619193,293.1229905474187,1.919562660702253,2.872445181750384,3.70885187713679,9499,0,623,,,15.8
" 57068 (2001 OC1)",2.361991091140869,.1817716863573557,2.356661344419227,189.710024851083,199.551682601038,1.932647987343142,2.791334194938595,3.63015847898379,15102,0,601,,,16.5
" 57080 (2001 OE21)",2.443445199216824,.153781982895174,6.721687892341929,164.5205498860696,188.990127294908,2.067687351385567,2.81920304704808,3.8195491873585,7958,0,780,,,15.3
" 57081 (2001 OH21)",2.33676176632961,.08009266830109357,5.895865955825933,308.5024094710833,112.3677289235678,2.149604281280295,2.523919251378925,3.57215141674095,6681,0,849,,,15.3
" 57094 (2001 OA48)",2.425517436410238,.1669200926245789,6.476342939631509,199.180835984229,203.0485180184807,2.02064984126211,2.830385031558366,3.77758985814624,6947,0,771,,,15.5
" 57140 Gaddi (2001 PG29)",2.429089589158242,.1849563372456794,2.984981268614848,188.312333031517,200.5292924622601,1.979814075905922,2.878365102410564,3.78593803258195,9930,0,597,,,15.8
" 57141 (2001 PG32)",2.408433750659969,.1622532345933492,9.360742595465235,49.56490786821238,39.79660950759959,2.017657584311597,2.799209917008341,3.73775007719679,7987,0,482,,,15.9
" 57142 (2001 PO35)",2.313078511402123,.105238265399934,11.41738381094054,246.4631125381069,162.5931408774963,2.069654141128302,2.556502881675944,3.51798321710609,9289,0,561,,,15.7
" 57148 (2001 PX57)",2.336376845767656,.1680640260161906,4.806385041537982,322.3130176668273,155.6798827043324,1.943715946776935,2.729037744758376,3.57126882490466,16724,0,661,,,15.8
" 57156 (2001 QM10)",2.464552531104408,.2007019410082298,1.824179355103994,342.8496164324877,55.8765402355861,1.969912054395007,2.959193007813808,3.86914781321064,14295,0,675,,,15.7
" 57159 (2001 QM15)",2.318316257735387,.1441699330977527,5.677654029347271,110.9849182675399,297.0495205360274,1.984084757958244,2.65254775751253,3.52993918670985,6676,0,833,,,15.5
" 57163 (2001 QL17)",2.35889227284413,.1558878160222962,4.121087362353462,85.61011362971702,347.0756412994605,1.991169708198588,2.726614837489671,3.62301693356429,6660,0,752,,,15.3
" 57166 (2001 QN18)",2.396193021506138,.09711360958781171,10.24080649843835,348.4970155017273,8.876453003802371,2.163490067918552,2.628895975093724,3.70929095744847,9517,0,607,,,15.6
" 57175 (2001 QD24)",2.437221802035155,.2080173130531034,3.091440950410126,111.9376847252066,287.402033540874,1.930237471461359,2.94420613260895,3.80496603068293,11437,0,756,,,15.6
" 57177 (2001 QV24)",2.18934223636291,.1896236312501459,4.747381139805772,117.5613543240986,206.4054101999427,1.77419121145446,2.60449326127136,3.23950523029003,6810,0,648,,,15.9
" 57186 (2001 QK30)",2.412216681292919,.1292549863292642,6.958833207813671,17.60637266971167,350.0408070064182,2.10042564712918,2.724007715456658,3.74655986910061,7431,0,885,,,14.7
" 57192 (2001 QO33)",2.373861930642004,.2602003022776023,9.765065743982174,141.9579826336459,272.1854733447051,1.756182338723662,2.991541522560345,3.65755938295782,9520,0,466,,,16.0
" 57224 (2001 QF75)",2.379626986840207,.1175388781718195,13.43232147920852,20.53127546580074,254.4671299220324,2.099928300339622,2.659325673340792,3.67089134980163,7453,0,686,,,14.9
" 57246 (2001 QW84)",2.287927467471434,.1281721143276003,6.436582044477138,91.97800683583402,352.808279413068,1.994678966537429,2.58117596840544,3.46076078172989,6774,0,672,,,15.8
" 57262 (2001 QS106)",2.388115615457115,.1158960127924638,9.551350985063705,283.40416932,152.314915037925,2.111342537538214,2.664888693376015,3.69055111560204,7040,0,859,,,14.8
" 57265 (2001 QR119)",2.441635001709823,.1593358805980793,3.654678168166066,91.30108663046126,327.0917977084346,2.052594938613296,2.830675064806351,3.81530547174554,9930,0,829,,,15.5
" 57268 (2001 QP123)",2.345746650145375,.1076280116990251,3.887513968165642,64.63663573350632,8.244124480362014,2.09327860224058,2.598214698050171,3.59277367141093,16785,0,475,,,16.0
" 57283 (2001 QZ156)",2.277634668448588,.1373166162745507,4.575052958011558,287.4267025361708,136.9774558301725,1.96487758266762,2.590391754229557,3.43743345387428,6746,0,462,,,16.2
" 57293 (2001 QY178)",2.413948832468582,.0907997909737773,6.126269000764228,142.2443439780057,279.8845447507223,2.194762783059041,2.633134881878122,3.7505960568517,7959,0,818,,,15.1
" 57301 (2001 QY197)",2.344923572844167,.04488197173866547,6.100331018846749,245.8875252928284,279.5218348316251,2.239678779318445,2.450168366369889,3.59088288471284,8129,0,962,,,15.0
" 57311 (2001 QR214)",2.254506383157943,.07930123136958137,7.530779601915285,342.48265615,87.27157565874354,2.075721250842937,2.433291515472949,3.38520837111312,8810,0,366,,,15.9
" 57318 (2001 QT237)",2.454415006125815,.1953890413418791,3.158613651230734,156.8954588053835,243.2049053144873,1.974849211023769,2.93398080122786,3.84529973967591,8396,0,820,,,15.2
" 57320 (2001 QN239)",2.41706548885175,.1606815088998979,3.152491985776785,148.2253554831061,270.28541864942,2.028687758993182,2.805443218710319,3.75786200913765,7985,0,882,,,15.5
" 57321 (2001 QV239)",2.417249889950546,.07897551826845846,5.998384369810262,176.5933576275964,340.4409167937791,2.226346327107327,2.608153452793764,3.75829205567749,9964,0,1069,,,15.0
" 57326 (2001 QY241)",2.351753462990533,.09013773374360519,4.749839594893985,7.006846252787594,115.4636785375482,2.139771735512891,2.563735190468175,3.60658266202159,8544,0,658,,,15.5
" 57337 (2001 QD257)",2.377576396893001,.09707608231280954,7.360311277979335,32.99253028205052,43.16702892362896,2.146770594883223,2.608382198902779,3.6661474102813,10045,0,798,,,15.3
" 57339 (2001 QG260)",2.417160353904781,.09810604648529705,5.535530731987824,269.390886914395,220.8820439551714,2.180022307862182,2.654298399947381,3.75808324431618,8980,0,669,,,15.4
" 57342 (2001 QJ264)",2.386642491761509,.1215726106505519,9.522505692499662,153.4274288256574,273.7636454006677,2.096492133348524,2.676792850174495,3.68713683379071,6949,0,802,,,14.6
" 57345 (2001 QG275)",2.388649420809423,.1369270093746384,4.657576184435959,106.3582432447564,323.5390888177915,2.061578799173526,2.715720042445319,3.69178858459856,7981,0,491,,,16.1
" 57346 (2001 QV277)",2.476494481874477,.1364557883018855,6.883509101496382,92.83136130610514,267.6595548422225,2.138562475125025,2.814426488623928,3.89730369462189,8486,0,691,,,15.5
" 57352 (2001 QP287)",2.367246466769629,.1007657372092141,6.600854289803715,182.7673126709655,216.6250828855322,2.12870913138968,2.605783802149578,3.64228074384789,6675,0,667,,,15.3
" 57358 (2001 QB297)",2.37422472636851,.08260991563669504,7.223177935816771,29.10614371434706,315.48150303917,2.178090222020652,2.570359230716368,3.65839788851342,9072,0,596,,,15.3
" 57360 (2001 RJ4)",2.383058552657234,.1548525307389064,6.634643076059185,298.3513499976603,178.7009891676428,2.014035904879266,2.752081200435202,3.6788346822823,7043,0,757,,,15.1
" 57363 (2001 RD25)",2.411639130153476,.09524203581387694,2.510146770897719,180.7264618202679,248.1343981560727,2.181949709749251,2.6413285505577,3.74521440514651,9960,0,630,,,15.9
" 57364 (2001 RU27)",2.415464966124486,.1689993308096465,.7551179305005037,347.7856980085103,76.25970827436127,2.007253003255302,2.823676928993669,3.75413007812597,9998,0,568,,,16.2
" 57365 (2001 RJ33)",2.274604468053163,.1312770079251421,5.957572993777336,271.1674846687314,232.6731091822662,1.976001199273984,2.573207736832342,3.43057591402319,6771,0,907,,,15.6
" 57372 (2001 RK48)",2.368604339759722,.09508893392757715,5.844970686958713,173.5043099255328,326.9649473999268,2.143376278195737,2.593832401323706,3.64541505868029,9463,0,770,,,15.3
" 57379 (2001 RS66)",2.326279268984361,.06576183136421423,6.030217085104558,301.3517098410164,185.6408994940651,2.173298883991345,2.479259653977379,3.54814188158826,7203,0,813,,,15.4
" 57380 (2001 RY66)",2.379794145914506,.04666900741636709,5.547975940791955,265.9667611304596,260.6163675853891,2.268731515269395,2.490856776559617,3.67127815427516,9969,0,683,,,15.2
" 57384 (2001 RR70)",2.334184115052867,.06651994930126169,6.381974352300156,308.7724414438281,245.0020494308438,2.17891430605974,2.489453924045994,3.56624245690238,6648,0,758,,,15.5
" 57390 (2001 RT76)",2.408489792422035,.0372557294096852,5.639965367604546,80.28222253161468,142.0384239178137,2.31875974842957,2.498219836414499,3.7378805383226,6983,0,1152,,,14.6
" 57394 (2001 RD84)",2.325204104342699,.05780203733629114,3.648363894226245,321.8010421612499,141.2162170173311,2.190802569888985,2.459605638796413,3.54568233432478,6678,0,755,,,15.6
" 57396 (2001 RS86)",2.32770066851828,.07113294893593236,5.846894411869035,187.1611811432662,275.3206279473701,2.162124455726433,2.493276881310126,3.55139434847631,8230,0,742,,,16.0
" 57409 (2001 RT120)",2.391576147260717,.1326529339895929,2.287166038602706,62.80026902110225,61.66631765476389,2.074326554467056,2.708825740054377,3.69857578675167,9529,0,488,,,15.9
" 57420 (2001 SE7)",2.435196084856798,.1546845448445404,1.450915907876698,138.5664731331998,284.1748432057938,2.058508886863518,2.811883282850078,3.80022322277006,9930,0,506,,,16.1
" 57430 (2001 SJ38)",2.455060100634757,.1179389834644223,3.369778170740868,60.48384448990067,115.5952605816566,2.165512808021831,2.744607393247682,3.84681583091982,6972,0,1156,,,14.7
" 57432 (2001 SM40)",2.285774833049827,.09837503732318234,6.930935016226123,46.82451017115524,117.1621847619775,2.060911648536159,2.510638017563495,3.45587775966588,12883,0,805,,,15.2
" 57450 (2001 SU69)",2.370407858051953,.1031644847107723,7.072371919014659,138.7087872325268,146.401094669558,2.125865952821658,2.614949763282248,3.64957942500282,7041,0,959,,,14.7
" 57453 (2001 SL70)",2.277907431669878,.1093233317449723,6.924114923085288,126.1516948623701,142.0672440330857,2.028879001833094,2.526935861506661,3.43805095862967,7272,0,858,,,15.3
